[{"OBJECT_NAME":"STARLINK-30508","OBJECT_ID":"2023-151R","EPOCH":"2026-03-09T22:00:01.999584","MEAN_MOTION":15.26754835,"ECCENTRICITY":0.00018952,"INCLINATION":42.9999,"RA_OF_ASC_NODE":349.4045,"ARG_OF_PERICENTER":269.8199,"MEAN_ANOMALY":246.9133,"EPHEMERIS_TYPE":0,"CLASSIFICATION_TYPE":"U","NORAD_CAT_ID":57979,"ELEMENT_SET_NO":999,"REV_AT_EPOCH":577,"BSTAR":-0.00031514839,"MEAN_MOTION_DOT":-8.707e-5,"MEAN_MOTION_DDOT":0},{"OBJECT_NAME":"OBJECT D","OBJECT_ID":"2024-173D","EPOCH":"2026-03-09T23:30:29.956896","MEAN_MOTION":15.27005733,"ECCENTRICITY":0.00090093,"INCLINATION":97.3606,"RA_OF_ASC_NODE":149.3901,"ARG_OF_PERICENTER":241.6081,"MEAN_ANOMALY":118.425,"EPHEMERIS_TYPE":0,"CLASSIFICATION_TYPE":"U","NORAD_CAT_ID":61230,"ELEMENT_SET_NO":999,"REV_AT_EPOCH":8130,"BSTAR":0.00072064626,"MEAN_MOTION_DOT":0.00019078,"MEAN_MOTION_DDOT":0}]
